{
  "type": "FeatureCollection",
  "features": [
    {
      "geometry": {
        "type": "LineString",
        "coordinates": [
          [
            124.430732168835,
            13.62783784609482
          ],
          [
            124.49141651348549,
            13.5576035765462
          ],
          [
            124.57086921214909,
            13.455103373979028
          ],
          [
            124.7103806436632,
            13.351341878603193
          ],
          [
            124.95124118685874,
            13.277373157812093
          ],
          [
            125.20852983251984,
            13.254189167699664
          ],
          [
            125.5458967886479,
            13.245618650650428
          ],
          [
            125.92219070125009,
            13.245708868191429
          ],
          [
            126.29626021633874,
            13.248505595371327
          ],
          [
            126.62695397992798,
            13.248054512516092
          ],
          [
            126.87312063802335,
            13.23840113906067
          ],
          [
            127.07394202598795,
            13.220435373058194
          ],
          [
            127.15339472465149,
            13.20185920648727
          ],
          [
            127.18279847927522,
            13.162570530950646
          ],
          [
            127.23347303511673,
            13.082450862276502
          ],
          [
            127.32199710488936,
            12.976396998935698
          ],
          [
            127.41114678646193,
            12.848340720902499
          ],
          [
            127.49153790282713,
            12.661627674456199
          ],
          [
            127.55378627697746,
            12.37946901753925
          ],
          [
            127.59864496015484,
            12.121880486122535
          ],
          [
            127.6546256308979,
            11.813970147637988
          ],
          [
            127.70393310910055,
            11.468656009357844
          ],
          [
            127.7287722146616,
            11.09890938695321
          ],
          [
            127.71134776747652,
            10.717766319720468
          ],
          [
            127.63386458744264,
            10.338331051006932
          ],
          [
            127.51664057632297,
            10.035074512907869
          ],
          [
            127.34670877101024,
            9.697618428170188
          ],
          [
            127.14142989896771,
            9.342538009287424
          ],
          [
            126.91816468766041,
            8.9864772587447
          ],
          [
            126.69427386455322,
            8.646147638535965
          ],
          [
            126.48711815710925,
            8.33831864434515
          ],
          [
            126.3140582927935,
            8.079802216532869
          ],
          [
            126.19245499906913,
            7.887432575828356
          ]
        ]
      },
      "properties": {
        "labelValue": "7",
        "closedMode": false,
        "isFront": false,
        "project": "69788d096ae17d112bfebdbd",
        "owner": "68c22b55d65e10c21653350a"
      },
      "_id": "698000541d2e46b6c5a3a46a",
      "sourceId": "WHO_c3009c7a-0980-4585-9e78-a3270db42f71",
      "__v": 0,
      "createdAt": "2026-02-02T01:39:32.732Z",
      "name": "Wave Height Layer 2"
    },
    {
      "geometry": {
        "type": "LineString",
        "coordinates": [
          [
            106.37307315893594,
            9.549584617322026
          ],
          [
            106.38808784214774,
            9.378957590123647
          ],
          [
            106.41311231416853,
            9.137221261208254
          ],
          [
            106.41811720857135,
            8.844634121831106
          ],
          [
            106.37307315893594,
            8.521498948552463
          ],
          [
            106.26865104208832,
            8.244219595062987
          ],
          [
            106.11105692709242,
            7.942953355678696
          ],
          [
            105.94161122214967,
            7.6176551169812114
          ],
          [
            105.80163433545647,
            7.268279861492459
          ],
          [
            105.73244667521436,
            6.894783522276498
          ],
          [
            105.73197974628914,
            6.593380145470178
          ],
          [
            105.75731064041747,
            6.2531542632512895
          ],
          [
            105.8056377840494,
            5.893896531832297
          ],
          [
            105.87415960364672,
            5.535451798337235
          ],
          [
            105.96007452566107,
            5.197715358801659
          ],
          [
            106.06058097655091,
            4.900622197726079
          ],
          [
            106.17287738277292,
            4.664131948394015
          ],
          [
            106.42906541508017,
            4.3869147652028175
          ],
          [
            106.7509426864425,
            4.227522452373179
          ],
          [
            107.08408097021362,
            4.146721971667574
          ],
          [
            107.37405203975084,
            4.105226612154681
          ],
          [
            107.58363199292114,
            4.1255065699691045
          ],
          [
            107.74941912005602,
            4.2175398341512675
          ],
          [
            107.9277184832012,
            4.323286618947307
          ],
          [
            108.17483514440272,
            4.3847315358182755
          ],
          [
            108.44197638811346,
            4.359500427466628
          ],
          [
            108.75203960623475,
            4.285079711920602
          ],
          [
            109.08868882343103,
            4.211290649847996
          ],
          [
            109.43558806436681,
            4.187970567536041
          ],
          [
            109.77640135370655,
            4.264956123238463
          ],
          [
            110.01255065701685,
            4.37739889366145
          ],
          [
            110.24788283471048,
            4.514262906597139
          ],
          [
            110.4848492636375,
            4.6828633512231335
          ],
          [
            110.72590132064983,
            4.8905035425841135
          ],
          [
            110.97349038259921,
            5.144469594895668
          ],
          [
            111.23006782633416,
            5.4520230482780505
          ],
          [
            111.4980850287082,
            5.820390790809142
          ],
          [
            111.66447459683542,
            6.0797960728723695
          ],
          [
            111.84156907799411,
            6.3838430192630256
          ],
          [
            112.02672700013778,
            6.7233326031055896
          ],
          [
            112.2173068912187,
            7.089074697661005
          ],
          [
            112.41066727919065,
            7.471895409277536
          ],
          [
            112.60416669200742,
            7.862644103578816
          ],
          [
            112.79516365762277,
            8.252199626760529
          ],
          [
            112.98101670398876,
            8.631475108519638
          ],
          [
            113.15908435905936,
            8.991420685510121
          ],
          [
            113.32672515078809,
            9.32302350202039
          ],
          [
            113.48129760712902,
            9.617304424977618
          ],
          [
            113.62016025603577,
            9.865311050070943
          ],
          [
            113.90043434266397,
            10.320999356993156
          ],
          [
            114.1262551781748,
            10.64541455592105
          ],
          [
            114.31203685845486,
            10.871986010663221
          ],
          [
            114.47219347938523,
            11.033942253336022
          ],
          [
            114.62113913685067,
            11.164385825658982
          ],
          [
            114.77785489287805,
            11.239256397433905
          ],
          [
            114.89390588187126,
            11.203664607363919
          ],
          [
            114.99369096405275,
            11.138606235540593
          ],
          [
            115.10160899964183,
            11.125101728870803
          ],
          [
            115.20671178212615,
            11.146278971552618
          ],
          [
            115.30180477580478,
            11.171751002623324
          ],
          [
            115.41691734709809,
            11.262265993152965
          ],
          [
            115.58207886243298,
            11.478465768524615
          ],
          [
            115.71176837107208,
            11.692993449461596
          ],
          [
            115.86620511268382,
            11.976906350665544
          ],
          [
            116.03663416994169,
            12.303635984623085
          ],
          [
            116.21430062552133,
            12.64670363222882
          ],
          [
            116.39044956209966,
            12.979756191345047
          ],
          [
            116.55632606234877,
            13.276577872948764
          ],
          [
            116.703175208944,
            13.511073335848408
          ],
          [
            116.87646967768637,
            13.762774901282882
          ],
          [
            116.99345908438113,
            13.90006334245551
          ],
          [
            117.155492540713,
            14.01784784304428
          ],
          [
            117.4639191583633,
            14.210786377768741
          ],
          [
            117.68361273988711,
            14.343002462444332
          ],
          [
            117.96147019711896,
            14.50098451364994
          ],
          [
            118.27953157976896,
            14.676069247589908
          ],
          [
            118.61983693754871,
            14.85961417128027
          ],
          [
            118.96442632016658,
            15.043003222069387
          ],
          [
            119.29533977733593,
            15.217649228027895
          ],
          [
            119.59461735876675,
            15.374992936993024
          ],
          [
            119.84429911416737,
            15.5064983662257
          ],
          [
            120.02642509324949,
            15.603644278314675
          ]
        ]
      },
      "properties": {
        "labelValue": "3",
        "closedMode": false,
        "isFront": false,
        "project": "69788d096ae17d112bfebdbd",
        "owner": "68c22b55d65e10c21653350a"
      },
      "_id": "698000491d2e46b6c5a3a468",
      "sourceId": "WHO_5e3c3bbc-49c0-44a6-a5f8-b02e43ef1574",
      "__v": 0,
      "createdAt": "2026-02-02T01:39:21.722Z",
      "name": "Wave Height Layer 1"
    },
    {
      "geometry": {
        "type": "LineString",
        "coordinates": [
          [
            109.29593617966702,
            13.938927637741699
          ],
          [
            109.50530759557012,
            13.863623889753569
          ],
          [
            109.79865001758623,
            13.753188243830635
          ],
          [
            110.14426578115746,
            13.625406743100825
          ],
          [
            110.51045722172245,
            13.498096866738308
          ],
          [
            110.86552667472165,
            13.389113227519559
          ],
          [
            111.17777647559905,
            13.316339827896385
          ],
          [
            111.57535277482191,
            13.268545012946802
          ],
          [
            111.94102287221978,
            13.265195978778678
          ],
          [
            112.29543195720868,
            13.297162148417087
          ],
          [
            112.6592252192051,
            13.355299320968953
          ],
          [
            112.95327277523262,
            13.419802404352836
          ],
          [
            113.24187500614948,
            13.503599359500143
          ],
          [
            113.53560224893516,
            13.60573574792133
          ],
          [
            113.84502484057288,
            13.725254064133694
          ],
          [
            114.18071311804368,
            13.861194329123322
          ],
          [
            114.4930556021493,
            13.991904450986993
          ],
          [
            114.83320305516656,
            14.140336248865921
          ],
          [
            115.1866968932614,
            14.300526638439479
          ],
          [
            115.53907853260125,
            14.4665261669018
          ],
          [
            115.87588938934829,
            14.632401708261384
          ],
          [
            116.18267087967178,
            14.79223768613376
          ],
          [
            116.50618725395236,
            14.971787562278678
          ],
          [
            116.79767230404542,
            15.145003426307795
          ],
          [
            117.07154012583578,
            15.321166985077795
          ],
          [
            117.34220481520805,
            15.509528621442357
          ],
          [
            117.62408046804529,
            15.719303074284127
          ],
          [
            117.88211057954538,
            15.922883025259338
          ],
          [
            118.15793587114655,
            16.15136347476094
          ],
          [
            118.43487336150616,
            16.39025066717194
          ],
          [
            118.69624006927478,
            16.625115327681684
          ],
          [
            118.92535301310465,
            16.841597307953293
          ],
          [
            119.10552921165134,
            17.02539935637502
          ],
          [
            119.25129676117149,
            17.234649836200532
          ],
          [
            119.29571519900702,
            17.39352196414417
          ],
          [
            119.32511895363064,
            17.530781490345845
          ],
          [
            119.42584245351208,
            17.675090312443174
          ],
          [
            119.65168831349746,
            17.844594563715205
          ],
          [
            119.94635147153588,
            18.020481810960035
          ],
          [
            120.23100484076855,
            18.175985303877255
          ],
          [
            120.42682133432697,
            18.284428723348753
          ]
        ]
      },
      "properties": {
        "labelValue": "3",
        "closedMode": false,
        "isFront": false,
        "project": "69788d096ae17d112bfebdbd",
        "owner": "68c22b55d65e10c21653350a"
      },
      "_id": "697ab78c1d2e46b6c5a2a8ab",
      "sourceId": "WHO_dd4b7bf4-0b89-4c9f-8e51-7c8f10c8643c",
      "__v": 0,
      "createdAt": "2026-01-29T01:27:40.082Z",
      "name": "Wave Height Layer"
    },
    {
      "geometry": {
        "type": "Point",
        "coordinates": [
          [
            [
              118.86529428025574,
              19.307817528465463
            ]
          ]
        ]
      },
      "properties": {
        "labelValue": "Ada",
        "closedMode": false,
        "isFront": false,
        "project": "69788d096ae17d112bfebdbd",
        "title": "Ada",
        "type": "typhoon",
        "owner": "68c22b55d65e10c21653350a"
      },
      "_id": "697ab7831d2e46b6c5a2a8a9",
      "sourceId": "typhoon_Ada",
      "__v": 0,
      "createdAt": "2026-01-29T01:27:31.132Z",
      "name": "Ada"
    }
  ]
}